start=new Date('2022-11-01T00:00:00.000Z').valueOf();
sats=[{"ECCENTRICITY":"0.00014820","NORAD_CAT_ID":"52838","DECAY_DATE":null,"RCS_SIZE":"LARGE","ELEMENT_SET_NO":"999","TLE_LINE1":"1 52838U 22062J   22305.00002315  .00029407  00000-0  18591-2 0  9999","EPHEMERIS_TYPE":"0","PERIAPSIS":"538.784","REF_FRAME":"TEME","BSTAR":"0.00185910000000","MEAN_ELEMENT_THEORY":"SGP4","RA_OF_ASC_NODE":"131.9735","MEAN_MOTION_DDOT":"0.0000000000000","GP_ID":"216586514","EPOCH":"2022-11-01T00:00:02.000160","LAUNCH_DATE":"2022-06-17","CENTER_NAME":"EARTH","MEAN_MOTION":"15.08819068","APOAPSIS":"540.835","OBJECT_TYPE":"PAYLOAD","ARG_OF_PERICENTER":"69.1946","SITE":"AFETR","MEAN_ANOMALY":"82.6090","TIME_SYSTEM":"UTC","FILE":"3639145","SEMIMAJOR_AXIS":"6917.944","PERIOD":"95.439","CLASSIFICATION_TYPE":"U","COUNTRY_CODE":"US","REV_AT_EPOCH":"2139","TLE_LINE2":"2 52838  53.2155 131.9735 0001482  69.1946  82.6090 15.08819068 21394","OBJECT_NAME":"STARLINK-4092","OBJECT_ID":"2022-062J","INCLINATION":"53.2155","MEAN_MOTION_DOT":"0.00029407"},{"PERIOD":"95.439","COUNTRY_CODE":"US","REV_AT_EPOCH":"2139","CLASSIFICATION_TYPE":"U","TLE_LINE2":"2 52839  53.2180 131.9768 0002206  46.6328 170.2764 15.08824547 21398","OBJECT_NAME":"STARLINK-4048","MEAN_MOTION_DOT":"0.00036016","INCLINATION":"53.2180","OBJECT_ID":"2022-062K","LAUNCH_DATE":"2022-06-17","APOAPSIS":"541.319","CENTER_NAME":"EARTH","MEAN_MOTION":"15.08824547","OBJECT_TYPE":"PAYLOAD","ARG_OF_PERICENTER":"46.6328","FILE":"3639238","SEMIMAJOR_AXIS":"6917.928","TIME_SYSTEM":"UTC","SITE":"AFETR","MEAN_ANOMALY":"170.2764","MEAN_ELEMENT_THEORY":"SGP4","RA_OF_ASC_NODE":"131.9768","EPOCH":"2022-11-01T00:00:02.000160","MEAN_MOTION_DDOT":"0.0000000000000","GP_ID":"216588633","ECCENTRICITY":"0.00022060","NORAD_CAT_ID":"52839","DECAY_DATE":null,"RCS_SIZE":"LARGE","TLE_LINE1":"1 52839U 22062K   22305.00002315  .00036016  00000-0  22704-2 0  9995","ELEMENT_SET_NO":"999","REF_FRAME":"TEME","BSTAR":"0.00227040000000","EPHEMERIS_TYPE":"0","PERIAPSIS":"538.267"},{"LAUNCH_DATE":"2022-06-17","APOAPSIS":"540.967","MEAN_MOTION":"15.08839939","CENTER_NAME":"EARTH","OBJECT_TYPE":"PAYLOAD","ARG_OF_PERICENTER":"50.2291","SEMIMAJOR_AXIS":"6917.881","FILE":"3639145","SITE":"AFETR","MEAN_ANOMALY":"146.6887","TIME_SYSTEM":"UTC","PERIOD":"95.438","REV_AT_EPOCH":"2139","COUNTRY_CODE":"US","CLASSIFICATION_TYPE":"U","OBJECT_NAME":"STARLINK-4049","TLE_LINE2":"2 52840  53.2175 131.9766 0001766  50.2291 146.6887 15.08839939 21396","MEAN_MOTION_DOT":"0.00001821","INCLINATION":"53.2175","OBJECT_ID":"2022-062L","ECCENTRICITY":"0.00017660","RCS_SIZE":"LARGE","NORAD_CAT_ID":"52840","DECAY_DATE":null,"TLE_LINE1":"1 52840U 22062L   22305.00002315  .00001821  00000-0  13251-3 0  9991","ELEMENT_SET_NO":"999","REF_FRAME":"TEME","BSTAR":"0.00013251000000","PERIAPSIS":"538.524","EPHEMERIS_TYPE":"0","MEAN_ELEMENT_THEORY":"SGP4","RA_OF_ASC_NODE":"131.9766","EPOCH":"2022-11-01T00:00:02.000160","MEAN_MOTION_DDOT":"0.0000000000000","GP_ID":"216586417"},{"RA_OF_ASC_NODE":"131.9769","MEAN_MOTION_DDOT":"0.0000000000000","GP_ID":"216586504","EPOCH":"2022-11-01T00:00:02.000160","MEAN_ELEMENT_THEORY":"SGP4","ELEMENT_SET_NO":"999","TLE_LINE1":"1 52841U 22062M   22305.00002315  .00002032  00000-0  14578-3 0  9990","EPHEMERIS_TYPE":"0","PERIAPSIS":"538.305","REF_FRAME":"TEME","BSTAR":"0.00014578000000","ECCENTRICITY":"0.00021040","RCS_SIZE":"LARGE","NORAD_CAT_ID":"52841","DECAY_DATE":null,"OBJECT_NAME":"STARLINK-4065","TLE_LINE2":"2 52841  53.2175 131.9769 0002104  44.2579 232.6847 15.08835015 21392","OBJECT_ID":"2022-062M","INCLINATION":"53.2175","MEAN_MOTION_DOT":"0.00002032","PERIOD":"95.438","CLASSIFICATION_TYPE":"U","REV_AT_EPOCH":"2139","COUNTRY_CODE":"US","OBJECT_TYPE":"PAYLOAD","ARG_OF_PERICENTER":"44.2579","SITE":"AFETR","MEAN_ANOMALY":"232.6847","TIME_SYSTEM":"UTC","FILE":"3639145","SEMIMAJOR_AXIS":"6917.896","LAUNCH_DATE":"2022-06-17","MEAN_MOTION":"15.08835015","CENTER_NAME":"EARTH","APOAPSIS":"541.216"},{"RCS_SIZE":"LARGE","NORAD_CAT_ID":"52842","DECAY_DATE":null,"ECCENTRICITY":"0.00018050","EPHEMERIS_TYPE":"0","PERIAPSIS":"538.505","BSTAR":"0.00040967000000","REF_FRAME":"TEME","ELEMENT_SET_NO":"999","TLE_LINE1":"1 52842U 22062N   22305.00002315  .00006237  00000-0  40967-3 0  9993","MEAN_ELEMENT_THEORY":"SGP4","MEAN_MOTION_DDOT":"0.0000000000000","GP_ID":"216586522","EPOCH":"2022-11-01T00:00:02.000160","RA_OF_ASC_NODE":"131.9798","MEAN_MOTION":"15.08837291","CENTER_NAME":"EARTH","APOAPSIS":"541.002","LAUNCH_DATE":"2022-06-17","SITE":"AFETR","MEAN_ANOMALY":"110.5408","TIME_SYSTEM":"UTC","SEMIMAJOR_AXIS":"6917.889","FILE":"3639146","OBJECT_TYPE":"PAYLOAD","ARG_OF_PERICENTER":"46.3821","CLASSIFICATION_TYPE":"U","REV_AT_EPOCH":"2139","COUNTRY_CODE":"US","PERIOD":"95.438","OBJECT_ID":"2022-062N","MEAN_MOTION_DOT":"0.00006237","INCLINATION":"53.2165","OBJECT_NAME":"STARLINK-4046","TLE_LINE2":"2 52842  53.2165 131.9798 0001805  46.3821 110.5408 15.08837291 21399"},{"OBJECT_NAME":"STARLINK-4188","TLE_LINE2":"2 52843  53.2181 131.9693 0002167  49.9915 266.8623 15.08817948 21398","OBJECT_ID":"2022-062P","INCLINATION":"53.2181","MEAN_MOTION_DOT":"0.00045448","PERIOD":"95.439","CLASSIFICATION_TYPE":"U","REV_AT_EPOCH":"2139","COUNTRY_CODE":"US","ARG_OF_PERICENTER":"49.9915","OBJECT_TYPE":"PAYLOAD","TIME_SYSTEM":"UTC","SITE":"AFETR","MEAN_ANOMALY":"266.8623","FILE":"3639238","SEMIMAJOR_AXIS":"6917.948","LAUNCH_DATE":"2022-06-17","MEAN_MOTION":"15.08817948","CENTER_NAME":"EARTH","APOAPSIS":"541.312","RA_OF_ASC_NODE":"131.9693","MEAN_MOTION_DDOT":"0.0000000000000","GP_ID":"216588629","EPOCH":"2022-11-01T00:00:02.000160","MEAN_ELEMENT_THEORY":"SGP4","ELEMENT_SET_NO":"999","TLE_LINE1":"1 52843U 22062P   22305.00002315  .00045448  00000-0  28570-2 0  9996","EPHEMERIS_TYPE":"0","PERIAPSIS":"538.314","BSTAR":"0.00285700000000","REF_FRAME":"TEME","ECCENTRICITY":"0.00021670","RCS_SIZE":"LARGE","DECAY_DATE":null,"NORAD_CAT_ID":"52843"},{"MEAN_ELEMENT_THEORY":"SGP4","EPOCH":"2022-11-01T00:00:02.000160","GP_ID":"216588600","MEAN_MOTION_DDOT":"0.0000000000000","RA_OF_ASC_NODE":"131.9779","DECAY_DATE":null,"NORAD_CAT_ID":"52844","RCS_SIZE":"LARGE","ECCENTRICITY":"0.00021120","REF_FRAME":"TEME","BSTAR":"0.00285380000000","PERIAPSIS":"538.388","EPHEMERIS_TYPE":"0","TLE_LINE1":"1 52844U 22062Q   22305.00002315  .00045381  00000-0  28538-2 0  9997","ELEMENT_SET_NO":"999","COUNTRY_CODE":"US","REV_AT_EPOCH":"2139","CLASSIFICATION_TYPE":"U","PERIOD":"95.440","INCLINATION":"53.2178","MEAN_MOTION_DOT":"0.00045381","OBJECT_ID":"2022-062Q","TLE_LINE2":"2 52844  53.2178 131.9779 0002112  37.4732 199.4431 15.08805936 21391","OBJECT_NAME":"STARLINK-4208","APOAPSIS":"541.311","CENTER_NAME":"EARTH","MEAN_MOTION":"15.08805936","LAUNCH_DATE":"2022-06-17","FILE":"3639237","SEMIMAJOR_AXIS":"6917.985","MEAN_ANOMALY":"199.4431","SITE":"AFETR","TIME_SYSTEM":"UTC","ARG_OF_PERICENTER":"37.4732","OBJECT_TYPE":"PAYLOAD"},{"OBJECT_ID":"2022-062R","INCLINATION":"53.2171","MEAN_MOTION_DOT":"0.00045434","OBJECT_NAME":"STARLINK-4168","TLE_LINE2":"2 52845  53.2171 131.9781 0002062  39.6581 292.0352 15.08817018 21394","CLASSIFICATION_TYPE":"U","REV_AT_EPOCH":"2139","COUNTRY_CODE":"US","PERIOD":"95.439","TIME_SYSTEM":"UTC","SITE":"AFETR","MEAN_ANOMALY":"292.0352","SEMIMAJOR_AXIS":"6917.951","FILE":"3639237","ARG_OF_PERICENTER":"39.6581","OBJECT_TYPE":"PAYLOAD","MEAN_MOTION":"15.08817018","CENTER_NAME":"EARTH","APOAPSIS":"541.242","LAUNCH_DATE":"2022-06-17","MEAN_MOTION_DDOT":"0.0000000000000","GP_ID":"216589106","EPOCH":"2022-11-01T00:00:02.000160","RA_OF_ASC_NODE":"131.9781","MEAN_ELEMENT_THEORY":"SGP4","PERIAPSIS":"538.389","EPHEMERIS_TYPE":"0","REF_FRAME":"TEME","BSTAR":"0.00285620000000","ELEMENT_SET_NO":"999","TLE_LINE1":"1 52845U 22062R   22305.00002315  .00045434  00000-0  28562-2 0  9994","RCS_SIZE":"LARGE","DECAY_DATE":null,"NORAD_CAT_ID":"52845","ECCENTRICITY":"0.00020620"},{"PERIOD":"95.438","CLASSIFICATION_TYPE":"U","COUNTRY_CODE":"US","REV_AT_EPOCH":"2139","TLE_LINE2":"2 52846  53.2185 131.9722 0002031  38.6863 258.2713 15.08833376 21393","OBJECT_NAME":"STARLINK-4212","OBJECT_ID":"2022-062S","INCLINATION":"53.2185","MEAN_MOTION_DOT":"-0.00000722","LAUNCH_DATE":"2022-06-17","CENTER_NAME":"EARTH","MEAN_MOTION":"15.08833376","APOAPSIS":"541.171","ARG_OF_PERICENTER":"38.6863","OBJECT_TYPE":"PAYLOAD","SITE":"AFETR","MEAN_ANOMALY":"258.2713","TIME_SYSTEM":"UTC","FILE":"3639237","SEMIMAJOR_AXIS":"6917.901","MEAN_ELEMENT_THEORY":"SGP4","RA_OF_ASC_NODE":"131.9722","GP_ID":"216588610","MEAN_MOTION_DDOT":"0.0000000000000","EPOCH":"2022-11-01T00:00:02.000160","ECCENTRICITY":"0.00020310","DECAY_DATE":null,"NORAD_CAT_ID":"52846","RCS_SIZE":"LARGE","ELEMENT_SET_NO":"999","TLE_LINE1":"1 52846U 22062S   22305.00002315 -.00000722  00000-0 -27249-4 0  9991","PERIAPSIS":"538.361","EPHEMERIS_TYPE":"0","BSTAR":"-0.00002724900000","REF_FRAME":"TEME"},{"MEAN_ELEMENT_THEORY":"SGP4","RA_OF_ASC_NODE":"131.9689","EPOCH":"2022-11-01T00:00:02.000160","GP_ID":"216588606","MEAN_MOTION_DDOT":"0.0000000000000","ECCENTRICITY":"0.00020750","NORAD_CAT_ID":"52847","DECAY_DATE":null,"RCS_SIZE":"LARGE","TLE_LINE1":"1 52847U 22062T   22305.00002315  .00045482  00000-0  28592-2 0  9992","ELEMENT_SET_NO":"999","BSTAR":"0.00285920000000","REF_FRAME":"TEME","PERIAPSIS":"538.380","EPHEMERIS_TYPE":"0","PERIOD":"95.439","COUNTRY_CODE":"US","REV_AT_EPOCH":"2139","CLASSIFICATION_TYPE":"U","TLE_LINE2":"2 52847  53.2181 131.9689 0002075  50.9042 305.9902 15.08817191 21393","OBJECT_NAME":"STARLINK-4206","MEAN_MOTION_DOT":"0.00045482","INCLINATION":"53.2181","OBJECT_ID":"2022-062T","LAUNCH_DATE":"2022-06-17","APOAPSIS":"541.251","CENTER_NAME":"EARTH","MEAN_MOTION":"15.08817191","OBJECT_TYPE":"PAYLOAD","ARG_OF_PERICENTER":"50.9042","FILE":"3639237","SEMIMAJOR_AXIS":"6917.950","MEAN_ANOMALY":"305.9902","SITE":"AFETR","TIME_SYSTEM":"UTC"}];
